{
    "links": {
        "self": "http://www.neowsapp.com/rest/v1/neo/54079788?api_key=iIulBulltgU6a56xZRHN4H3l9WmuAYTsLGpBGhQ2"
    },
    "id": "54079788",
    "neo_reference_id": "54079788",
    "name": "(2020 UL6)",
    "designation": "2020 UL6",
    "nasa_jpl_url": "http://ssd.jpl.nasa.gov/sbdb.cgi?sstr=54079788",
    "absolute_magnitude_h": 27.399,
    "estimated_diameter": {
        "kilometers": {
            "estimated_diameter_min": 0.0088055194,
            "estimated_diameter_max": 0.0196897399
        },
        "meters": {
            "estimated_diameter_min": 8.805519367,
            "estimated_diameter_max": 19.6897398817
        },
        "miles": {
            "estimated_diameter_min": 0.0054714944,
            "estimated_diameter_max": 0.0122346334
        },
        "feet": {
            "estimated_diameter_min": 28.8895001599,
            "estimated_diameter_max": 64.5988861935
        }
    },
    "is_potentially_hazardous_asteroid": false,
    "close_approach_data": [
        {
            "close_approach_date": "2020-10-20",
            "close_approach_date_full": "2020-Oct-20 18:08",
            "epoch_date_close_approach": 1603217280000,
            "relative_velocity": {
                "kilometers_per_second": "8.2475259531",
                "kilometers_per_hour": "29691.0934313284",
                "miles_per_hour": "18448.890804594"
            },
            "miss_distance": {
                "astronomical": "0.027042038",
                "lunar": "10.519352782",
                "kilometers": "4045431.28525906",
                "miles": "2513714.438172628"
            },
            "orbiting_body": "Earth"
        }
    ],
    "orbital_data": {
        "orbit_id": "1",
        "orbit_determination_date": "2020-10-27 07:42:08",
        "first_observation_date": "2020-10-24",
        "last_observation_date": "2020-10-27",
        "data_arc_in_days": 3,
        "observations_used": 10,
        "orbit_uncertainty": "8",
        "minimum_orbit_intersection": ".0231534",
        "jupiter_tisserand_invariant": "4.769",
        "epoch_osculation": "2459148.5",
        "eccentricity": ".2817105509534731",
        "semi_major_axis": "1.368122526642967",
        "inclination": "10.93964467244357",
        "ascending_node_longitude": "210.0627766618897",
        "orbital_period": "584.5018869455843",
        "perihelion_distance": ".9827079758905192",
        "perihelion_argument": "144.8363933175803",
        "aphelion_distance": "1.753537077395415",
        "perihelion_time": "2459114.850963600836",
        "mean_anomaly": "20.72474593196102",
        "mean_motion": ".6159090467290744",
        "equinox": "J2000",
        "orbit_class": {
            "orbit_class_type": "APO",
            "orbit_class_description": "Near-Earth asteroid orbits which cross the Earth’s orbit similar to that of 1862 Apollo",
            "orbit_class_range": "a (semi-major axis) > 1.0 AU; q (perihelion) < 1.017 AU"
        }
    },
    "is_sentry_object": false
}